OBJECT_NAME,OBJECT_ID,EPOCH,MEAN_MOTION,ECCENTRICITY,INCLINATION,RA_OF_ASC_NODE,ARG_OF_PERICENTER,MEAN_ANOMALY,EPHEMERIS_TYPE,CLASSIFICATION_TYPE,NORAD_CAT_ID,ELEMENT_SET_NO,REV_AT_EPOCH,BSTAR,MEAN_MOTION_DOT,MEAN_MOTION_DDOT
INTELSAT 23 (IS-23),2012-057A,2026-07-23T05:53:22.190208,1.00269328,.00002601,0.0234,301.3219,243.3958,151.5888,0,U,38867,999,5031,0,-.28E-5,0
FM-6,2013-058A,2026-07-23T05:54:42.579360,1.00270218,.00013645,0.0077,16.6376,163.5639,93.0830,0,U,39360,999,4643,0,-.11E-6,0
INTELSAT 30 (IS-30),2014-062A,2026-07-23T06:06:14.253696,1.00270748,.00015355,0.0184,57.9753,343.4907,256.0281,0,U,40271,999,715,0,-.146E-5,0
DIRECTV 14,2014-078B,2026-07-22T10:51:00.353088,1.00273271,.00006579,0.0107,49.5652,348.8605,325.2826,0,U,40333,999,4239,0,-.122E-5,0
DIRECTV 15,2015-026A,2026-07-23T02:13:46.011360,1.00275152,.00006721,0.0228,79.8798,299.3070,212.2078,0,U,40663,999,4082,0,-.99E-6,0
SKY MEXICO-1,2015-026B,2026-07-23T06:22:38.754912,1.00270417,.0002746,0.0136,343.1539,153.1069,181.5917,0,U,40664,999,4081,0,-.23E-5,0
INTELSAT 34 (IS-34),2015-039A,2026-07-23T05:52:37.261344,1.00270589,.00005934,0.0086,9.4733,31.9146,292.2518,0,U,40874,999,3999,0,-.281E-5,0
INTELSAT 31 (IS-31),2016-035A,2026-07-23T06:04:43.078368,1.00271399,.0000732,0.0098,300.6066,2.7170,353.7911,0,U,41581,999,3704,0,-.146E-5,0
INTELSAT 36 (IS-36),2016-053A,2026-07-23T03:02:43.912032,1.00271003,.00022919,0.0115,39.2464,312.2385,63.5502,0,U,41747,999,3631,0,-.2E-6,0
INTELSAT 32E (IS-32E),2017-007B,2026-07-23T04:13:28.142688,1.00267455,.00003335,0.0223,52.5846,30.7953,237.7127,0,U,41945,999,3458,0,0,0
INTELSAT 35E (IS-35E),2017-041A,2026-07-23T05:58:36.687072,1.00271555,.00021248,0.0182,62.0401,56.9729,237.1241,0,U,42818,999,3317,0,-.233E-5,0
INTELSAT 37E (IS-37E),2017-059A,2026-07-23T00:55:24.383424,1.00272518,.00029264,0.0152,75.4486,49.7794,171.4015,0,U,42950,999,3242,0,-.136E-5,0
AZERSPACE 2 (IS-38),2018-074A,2026-07-23T02:55:59.558304,1.00269748,.00013375,0.0172,49.3402,53.1930,287.4352,0,U,43632,999,2880,0,.141E-5,0
HORIZONS-3E,2018-074B,2026-07-22T20:40:47.190720,1.00272442,.00004087,0.0323,238.8554,76.6575,104.2718,0,U,43633,999,2869,0,-.26E-6,0
AT&T T-16,2019-034A,2026-07-23T02:14:23.451072,1.00273461,.00006317,0.0154,76.6092,292.9337,224.0216,0,U,44333,999,2599,0,-.111E-5,0
INTELSAT 39 (IS-39),2019-049B,2026-07-23T03:00:51.592032,1.00270501,.00008779,0.0231,53.6094,313.2105,41.2065,0,U,44476,999,2548,0,0,0
GALAXY 30 (G-30),2020-056C,2026-07-23T06:39:00.329760,1.00271616,.00022684,0.0140,70.3799,48.6314,156.7393,0,U,46114,999,2165,0,.42E-6,0
GALAXY 33 (G-33),2022-128A,2026-07-23T05:43:38.598816,1.00271197,.00020366,0.0151,12.1613,101.4803,140.2386,0,U,54026,999,1410,0,.84E-6,0
GALAXY 34 (G-34),2022-128B,2026-07-23T02:54:17.441280,1.00266055,.00018626,0.0091,41.8965,74.8200,98.7102,0,U,54027,999,1427,0,.64E-6,0
GALAXY 31 (G-31),2022-153A,2026-07-22T22:43:20.965152,1.00272498,.00014492,0.0160,65.1214,61.9203,33.4900,0,U,54243,999,749,0,0,0
GALAXY 32 (G-32),2022-153B,2026-07-23T05:42:30.729888,1.00272230,.00015172,0.0078,38.5533,19.5840,237.4671,0,U,54244,999,1350,0,-.17E-5,0
GALAXY 35 (G-35),2022-170A,2026-07-23T06:51:47.206656,1.00269698,.00021767,0.0128,57.9650,63.0763,189.8255,0,U,54741,999,1325,0,0,0
GALAXY 36 (G-36),2022-170B,2026-07-23T05:43:08.171328,1.00272135,.00027687,0.0222,123.9571,337.0003,196.7984,0,U,54742,999,1313,0,-.181E-5,0
GALAXY 37 (G-37),2023-112A,2026-07-23T05:32:16.711872,1.00271672,.00021152,0.0157,63.4999,52.0812,141.4534,0,U,57493,999,1090,0,.53E-6,0
