INTELSAT 23 (IS-23)     
1 38867U 12057A   26204.24539572 -.00000280  00000+0  00000+0 0  9997
2 38867   0.0234 301.3219 0000260 243.3958 151.5888  1.00269328 50310
FM-6                    
1 39360U 13058A   26204.24632615 -.00000011  00000+0  00000+0 0  9992
2 39360   0.0077  16.6376 0001364 163.5639  93.0830  1.00270218 46434
INTELSAT 30 (IS-30)     
1 40271U 14062A   26204.25433164 -.00000146  00000+0  00000+0 0  9999
2 40271   0.0184  57.9753 0001535 343.4907 256.0281  1.00270748  7155
DIRECTV 14              
1 40333U 14078B   26203.45208742 -.00000122  00000+0  00000+0 0  9992
2 40333   0.0107  49.5652 0000657 348.8605 325.2826  1.00273271 42395
DIRECTV 15              
1 40663U 15026A   26204.09289365 -.00000099  00000+0  00000+0 0  9996
2 40663   0.0228  79.8798 0000672 299.3070 212.2078  1.00275152 40825
SKY MEXICO-1            
1 40664U 15026B   26204.26572633 -.00000230  00000+0  00000+0 0  9996
2 40664   0.0136 343.1539 0002746 153.1069 181.5917  1.00270417 40811
INTELSAT 34 (IS-34)     
1 40874U 15039A   26204.24487571 -.00000281  00000+0  00000+0 0  9993
2 40874   0.0086   9.4733 0000593  31.9146 292.2518  1.00270589 39997
INTELSAT 31 (IS-31)     
1 41581U 16035A   26204.25327637 -.00000146  00000+0  00000+0 0  9993
2 41581   0.0098 300.6066 0000732   2.7170 353.7911  1.00271399 37043
INTELSAT 36 (IS-36)     
1 41747U 16053A   26204.12689713 -.00000020  00000+0  00000+0 0  9990
2 41747   0.0115  39.2464 0002291 312.2385  63.5502  1.00271003 36316
INTELSAT 32E (IS-32E)   
1 41945U 17007B   26204.17602017  .00000000  00000+0  00000+0 0  9994
2 41945   0.0223  52.5846 0000333  30.7953 237.7127  1.00267455 34587
INTELSAT 35E (IS-35E)   
1 42818U 17041A   26204.24903573 -.00000233  00000+0  00000+0 0  9990
2 42818   0.0182  62.0401 0002124  56.9729 237.1241  1.00271555 33176
INTELSAT 37E (IS-37E)   
1 42950U 17059A   26204.03847666 -.00000136  00000+0  00000+0 0  9995
2 42950   0.0152  75.4486 0002926  49.7794 171.4015  1.00272518 32429
AZERSPACE 2 (IS-38)     
1 43632U 18074A   26204.12221711  .00000141  00000+0  00000+0 0  9993
2 43632   0.0172  49.3402 0001337  53.1930 287.4352  1.00269748 28803
HORIZONS-3E             
1 43633U 18074B   26203.86165730 -.00000026  00000+0  00000+0 0  9995
2 43633   0.0323 238.8554 0000408  76.6575 104.2718  1.00272442 28692
AT&T T-16               
1 44333U 19034A   26204.09332698 -.00000111  00000+0  00000+0 0  9990
2 44333   0.0154  76.6092 0000631 292.9337 224.0216  1.00273461 25990
INTELSAT 39 (IS-39)     
1 44476U 19049B   26204.12559713  .00000000  00000+0  00000+0 0  9993
2 44476   0.0231  53.6094 0000877 313.2105  41.2065  1.00270501 25480
GALAXY 30 (G-30)        
1 46114U 20056C   26204.27708715  .00000042  00000+0  00000+0 0  9994
2 46114   0.0140  70.3799 0002268  48.6314 156.7393  1.00271616 21654
GALAXY 33 (G-33)        
1 54026U 22128A   26204.23864119  .00000084  00000+0  00000+0 0  9990
2 54026   0.0151  12.1613 0002036 101.4803 140.2386  1.00271197 14106
GALAXY 34 (G-34)        
1 54027U 22128B   26204.12103520  .00000064  00000+0  00000+0 0  9999
2 54027   0.0091  41.8965 0001862  74.8200  98.7102  1.00266055 14277
GALAXY 31 (G-31)        
1 54243U 22153A   26203.94677043  .00000000  00000+0  00000+0 0  9992
2 54243   0.0160  65.1214 0001449  61.9203  33.4900  1.00272498  7497
GALAXY 32 (G-32)        
1 54244U 22153B   26204.23785567 -.00000170  00000+0  00000+0 0  9996
2 54244   0.0078  38.5533 0001517  19.5840 237.4671  1.00272230 13500
GALAXY 35 (G-35)        
1 54741U 22170A   26204.28596304  .00000000  00000+0  00000+0 0  9992
2 54741   0.0128  57.9650 0002176  63.0763 189.8255  1.00269698 13257
GALAXY 36 (G-36)        
1 54742U 22170B   26204.23828902 -.00000181  00000+0  00000+0 0  9991
2 54742   0.0222 123.9571 0002768 337.0003 196.7984  1.00272135 13130
GALAXY 37 (G-37)        
1 57493U 23112A   26204.23074898  .00000053  00000+0  00000+0 0  9998
2 57493   0.0157  63.4999 0002115  52.0812 141.4534  1.00271672 10908
